OBJECT_NAME,OBJECT_ID,EPOCH,MEAN_MOTION,ECCENTRICITY,INCLINATION,RA_OF_ASC_NODE,ARG_OF_PERICENTER,MEAN_ANOMALY,EPHEMERIS_TYPE,CLASSIFICATION_TYPE,NORAD_CAT_ID,ELEMENT_SET_NO,REV_AT_EPOCH,BSTAR,MEAN_MOTION_DOT,MEAN_MOTION_DDOT
SAUDISAT 2,2004-025F,2026-07-02T06:40:14.009952,14.56692512,.0023503,98.5511,183.6500,249.4990,110.3685,0,U,28371,999,16794,.76076E-4,.291E-5,0
COSMOS 2407,2004-028A,2026-07-02T14:44:54.629088,13.76335862,.0038476,82.9597,63.4076,207.5228,170.1027,0,U,28380,999,10200,.52989E-4,.67E-6,0
COSMOS 2414,2005-002A,2026-07-02T02:22:44.320512,13.87927307,.00387617,82.9488,32.3648,287.5954,72.0978,0,U,28521,999,8588,.22876851E-4,.43E-6,0
INMARSAT 4-F1,2005-009A,2026-07-02T09:41:47.365152,1.00271734,.0002927,5.1874,42.7719,61.5295,139.7012,0,U,28628,999,7782,0,.41E-6,0
SJ-7,2005-024A,2026-07-02T13:03:35.695296,15.21775273,.0014663,97.7268,214.0620,344.8689,15.2105,0,U,28737,999,15036,.3816E-3,.8609E-4,0
CUBESAT XI-V,2005-043F,2026-07-02T16:34:05.846880,14.72675255,.0014699,98.3002,339.6391,152.1460,208.0536,0,U,28895,999,10403,.27823E-3,.1723E-4,0
HINODE (SOLAR-B),2006-041A,2026-07-02T12:21:31.735296,14.68644562,.001619,98.0543,199.4413,236.7494,123.2161,0,U,29479,999,5712,.15481E-3,.853E-5,0
SHIJIAN-6 02B (SJ-6 02B),2006-046B,2026-07-02T19:23:53.103264,15.01414119,.0014904,97.7148,212.7703,15.7989,344.3697,0,U,29506,999,7308,.94389E-4,.1159E-4,0
DMSP 5D-3 F17 (USA 191),2006-050A,2026-07-02T17:25:41.048256,14.14995033,.0010483,98.7380,189.9783,18.2426,341.9121,0,U,29522,999,1462,.42834E-4,.4E-6,0
LAPAN-TUBSAT,2007-001A,2026-07-02T17:48:31.385952,14.85963845,.0013111,98.1340,183.3170,130.5898,229.6460,0,U,29709,999,5346,.40167E-4,.293E-5,0
HAIYANG-1B,2007-010A,2026-07-02T10:58:31.965024,14.31030796,.0014021,98.3502,164.7107,151.3096,208.8862,0,U,31113,999,282,.56083E-4,.106E-5,0
COSMO-SKYMED 2,2007-059A,2026-07-02T18:08:35.966112,14.82158542,.0001319,97.8889,7.1282,90.5314,269.6050,0,U,32376,999,431,.68836E-4,.496E-5,0
CARTOSAT-2A,2008-021A,2026-07-02T21:00:01.497312,14.79260539,.001322,97.7624,232.0478,63.5410,296.7156,0,U,32783,999,98112,.56374E-4,.369E-5,0
CUTE-1.7+APD II (CO-65),2008-021C,2026-07-02T21:25:24.197952,15.09606626,.000812,97.8286,165.6398,347.2751,12.8271,0,U,32785,999,98756,.46082E-3,.7348E-4,0
SEEDS II (CO-66),2008-021J,2026-07-02T19:13:39.277056,15.33292646,.0001504,97.7521,182.4499,186.8338,173.2883,0,U,32791,999,98968,.62654E-3,.20103E-3,0
YUBILEINY (RS30),2008-025A,2026-07-02T20:55:54.770016,12.43180358,.0018506,82.5047,345.6812,277.6074,82.2904,0,U,32953,999,82164,.3641E-3,.6E-6,0
FENGYUN 3A,2008-026A,2026-07-02T20:03:18.362016,14.19574446,.0009882,98.6885,124.3762,83.5691,276.6610,0,U,32958,999,93762,.63361E-4,.9E-6,0
HUANJING 1A (HJ-1A),2008-041A,2026-07-02T21:02:32.680032,14.84024072,.002071,97.6686,169.1088,86.7514,273.6069,0,U,33320,999,96073,.15245E-3,.1223E-4,0
HUANJING 1B (HJ-1B),2008-041B,2026-07-02T20:28:20.616960,14.83343974,.0037459,97.6520,172.2102,130.2533,230.1968,0,U,33321,999,96073,.12506E-3,.985E-5,0
SHIJIAN-6 03A (SJ-6 03A),2008-053A,2026-07-02T21:02:54.185856,15.17315572,.0010012,97.8401,217.7436,325.6393,34.4191,0,U,33408,999,96534,.23447E-3,.4607E-4,0
SHIJIAN-6 03B (SJ-6 03B),2008-053B,2026-07-02T20:44:26.064384,15.04354004,.0019144,97.8567,204.0143,352.3910,7.7022,0,U,33409,999,96510,.14847E-3,.2013E-4,0
CHUANGXIN 1-02 (CX-1-02),2008-056B,2026-07-02T19:54:02.129184,14.30156433,.0015518,98.6125,209.9396,93.8939,266.4018,0,U,33434,999,92085,.58634E-4,.108E-5,0
